start=new Date('2022-05-03T00:00:00.000Z').valueOf();
sats=[{"EPHEMERIS_TYPE":"0","EPOCH":"2022-05-02T20:04:56.531424","MEAN_ELEMENT_THEORY":"SGP4","LAUNCH_DATE":"2021-04-07","MEAN_ANOMALY":"285.9258","APOAPSIS":"548.209","SEMIMAJOR_AXIS":"6925.418","TLE_LINE2":"2 48132  53.0562   7.2382 0001336  74.1878 285.9258 15.06377225 60363","GP_ID":"202555608","PERIOD":"95.594","DECAY_DATE":null,"REV_AT_EPOCH":"6036","ELEMENT_SET_NO":"999","MEAN_MOTION":"15.06377225","INCLINATION":"53.0562","MEAN_MOTION_DOT":"0.00000342","SITE":"AFETR","NORAD_CAT_ID":"48132","OBJECT_TYPE":"PAYLOAD","RCS_SIZE":"LARGE","RA_OF_ASC_NODE":"7.2382","ECCENTRICITY":"0.00013360","OBJECT_ID":"2021-027AS","MEAN_MOTION_DDOT":"0.0000000000000","BSTAR":"0.00004187300000","CLASSIFICATION_TYPE":"U","FILE":"3426306","ARG_OF_PERICENTER":"74.1878","PERIAPSIS":"546.358","COUNTRY_CODE":"US","REF_FRAME":"TEME","CENTER_NAME":"EARTH","OBJECT_NAME":"STARLINK-2474","TLE_LINE1":"1 48132U 21027AS  22122.83676541  .00000342  00000-0  41873-4 0  9995","TIME_SYSTEM":"UTC"},{"MEAN_MOTION_DDOT":"0.0000000000000","ECCENTRICITY":"0.00016060","OBJECT_ID":"2021-027AT","CLASSIFICATION_TYPE":"U","BSTAR":"0.00008929700000","FILE":"3426306","ARG_OF_PERICENTER":"68.6241","PERIAPSIS":"546.137","CENTER_NAME":"EARTH","COUNTRY_CODE":"US","REF_FRAME":"TEME","TIME_SYSTEM":"UTC","TLE_LINE1":"1 48133U 21027AT  22122.83306903  .00001048  00000-0  89297-4 0  9994","OBJECT_NAME":"STARLINK-2475","MEAN_ELEMENT_THEORY":"SGP4","EPHEMERIS_TYPE":"0","EPOCH":"2022-05-02T19:59:37.164192","MEAN_ANOMALY":"291.4919","LAUNCH_DATE":"2021-04-07","APOAPSIS":"548.362","PERIOD":"95.593","SEMIMAJOR_AXIS":"6925.385","TLE_LINE2":"2 48133  53.0555   7.2541 0001606  68.6241 291.4919 15.06388227 60376","GP_ID":"202555858","SITE":"AFETR","MEAN_MOTION_DOT":"0.00001048","ELEMENT_SET_NO":"999","DECAY_DATE":null,"REV_AT_EPOCH":"6037","INCLINATION":"53.0555","MEAN_MOTION":"15.06388227","RCS_SIZE":"LARGE","OBJECT_TYPE":"PAYLOAD","NORAD_CAT_ID":"48133","RA_OF_ASC_NODE":"7.2541"},{"TLE_LINE1":"1 48134U 21027AU  22122.81831697  .00001843  00000-0  14257-3 0  9992","TIME_SYSTEM":"UTC","OBJECT_NAME":"STARLINK-2476","COUNTRY_CODE":"US","REF_FRAME":"TEME","CENTER_NAME":"EARTH","PERIAPSIS":"546.089","ARG_OF_PERICENTER":"79.2040","FILE":"3426306","CLASSIFICATION_TYPE":"U","BSTAR":"0.00014257000000","MEAN_MOTION_DDOT":"0.0000000000000","ECCENTRICITY":"0.00016330","OBJECT_ID":"2021-027AU","RA_OF_ASC_NODE":"7.3157","RCS_SIZE":"LARGE","OBJECT_TYPE":"PAYLOAD","NORAD_CAT_ID":"48134","MEAN_MOTION_DOT":"0.00001843","SITE":"AFETR","DECAY_DATE":null,"ELEMENT_SET_NO":"999","REV_AT_EPOCH":"6036","INCLINATION":"53.0560","MEAN_MOTION":"15.06398043","PERIOD":"95.592","GP_ID":"202556108","TLE_LINE2":"2 48134  53.0560   7.3157 0001633  79.2040 280.9133 15.06398043 60369","SEMIMAJOR_AXIS":"6925.355","APOAPSIS":"548.350","MEAN_ANOMALY":"280.9133","LAUNCH_DATE":"2021-04-07","MEAN_ELEMENT_THEORY":"SGP4","EPHEMERIS_TYPE":"0","EPOCH":"2022-05-02T19:38:22.586208"},{"RCS_SIZE":"LARGE","NORAD_CAT_ID":"48135","OBJECT_TYPE":"PAYLOAD","RA_OF_ASC_NODE":"12.0778","MEAN_MOTION_DOT":"0.00001683","SITE":"AFETR","DECAY_DATE":null,"REV_AT_EPOCH":"6030","INCLINATION":"53.0555","ELEMENT_SET_NO":"999","MEAN_MOTION":"15.06394751","APOAPSIS":"548.173","PERIOD":"95.592","TLE_LINE2":"2 48135  53.0555  12.0778 0001362  69.6311 290.4824 15.06394751 60308","GP_ID":"202556354","SEMIMAJOR_AXIS":"6925.365","MEAN_ELEMENT_THEORY":"SGP4","EPHEMERIS_TYPE":"0","EPOCH":"2022-05-02T20:53:18.874176","MEAN_ANOMALY":"290.4824","LAUNCH_DATE":"2021-04-07","TIME_SYSTEM":"UTC","TLE_LINE1":"1 48135U 21027AV  22122.87035734  .00001683  00000-0  13187-3 0  9990","OBJECT_NAME":"STARLINK-2478","PERIAPSIS":"546.286","CENTER_NAME":"EARTH","COUNTRY_CODE":"US","REF_FRAME":"TEME","FILE":"3426306","ARG_OF_PERICENTER":"69.6311","MEAN_MOTION_DDOT":"0.0000000000000","ECCENTRICITY":"0.00013620","OBJECT_ID":"2021-027AV","CLASSIFICATION_TYPE":"U","BSTAR":"0.00013187000000"},{"APOAPSIS":"548.300","GP_ID":"202555108","TLE_LINE2":"2 48136  53.0550   7.2015 0001500  70.5688 289.5463 15.06384431 60375","SEMIMAJOR_AXIS":"6925.396","PERIOD":"95.593","EPHEMERIS_TYPE":"0","EPOCH":"2022-05-02T20:15:32.575392","MEAN_ELEMENT_THEORY":"SGP4","LAUNCH_DATE":"2021-04-07","MEAN_ANOMALY":"289.5463","OBJECT_TYPE":"PAYLOAD","NORAD_CAT_ID":"48136","RCS_SIZE":"LARGE","RA_OF_ASC_NODE":"7.2015","MEAN_MOTION":"15.06384431","DECAY_DATE":null,"REV_AT_EPOCH":"6037","ELEMENT_SET_NO":"999","INCLINATION":"53.0550","SITE":"AFETR","MEAN_MOTION_DOT":"-0.00000983","FILE":"3426306","ARG_OF_PERICENTER":"70.5688","ECCENTRICITY":"0.00015000","OBJECT_ID":"2021-027AW","MEAN_MOTION_DDOT":"0.0000000000000","BSTAR":"-0.00004711000000","CLASSIFICATION_TYPE":"U","OBJECT_NAME":"STARLINK-2479","TIME_SYSTEM":"UTC","TLE_LINE1":"1 48136U 21027AW  22122.84412703 -.00000983  00000-0 -47110-4 0  9991","PERIAPSIS":"546.222","COUNTRY_CODE":"US","CENTER_NAME":"EARTH","REF_FRAME":"TEME"},{"RCS_SIZE":"LARGE","OBJECT_TYPE":"PAYLOAD","NORAD_CAT_ID":"48137","RA_OF_ASC_NODE":"347.3715","MEAN_MOTION_DOT":"0.00001600","SITE":"AFETR","REV_AT_EPOCH":"6064","DECAY_DATE":null,"ELEMENT_SET_NO":"999","MEAN_MOTION":"15.06386920","INCLINATION":"53.0561","APOAPSIS":"548.373","PERIOD":"95.593","TLE_LINE2":"2 48137  53.0561 347.3715 0001616  58.8499 301.2648 15.06386920 60642","SEMIMAJOR_AXIS":"6925.389","GP_ID":"202555358","MEAN_ELEMENT_THEORY":"SGP4","EPHEMERIS_TYPE":"0","EPOCH":"2022-05-02T19:18:28.125216","MEAN_ANOMALY":"301.2648","LAUNCH_DATE":"2021-04-07","TLE_LINE1":"1 48137U 21027AX  22122.80449219  .00001600  00000-0  12633-3 0  9996","TIME_SYSTEM":"UTC","OBJECT_NAME":"STARLINK-2480","PERIAPSIS":"546.135","COUNTRY_CODE":"US","CENTER_NAME":"EARTH","REF_FRAME":"TEME","FILE":"3426306","ARG_OF_PERICENTER":"58.8499","MEAN_MOTION_DDOT":"0.0000000000000","OBJECT_ID":"2021-027AX","ECCENTRICITY":"0.00016160","CLASSIFICATION_TYPE":"U","BSTAR":"0.00012633000000"},{"EPOCH":"2022-05-02T19:54:19.220832","EPHEMERIS_TYPE":"0","MEAN_ELEMENT_THEORY":"SGP4","LAUNCH_DATE":"2021-04-07","MEAN_ANOMALY":"291.3252","APOAPSIS":"548.179","TLE_LINE2":"2 48138  53.0560   7.2725 0001315  68.7878 291.3252 15.06382204 60373","SEMIMAJOR_AXIS":"6925.403","GP_ID":"202556608","PERIOD":"95.593","ELEMENT_SET_NO":"999","DECAY_DATE":null,"REV_AT_EPOCH":"6037","MEAN_MOTION":"15.06382204","INCLINATION":"53.0560","SITE":"AFETR","MEAN_MOTION_DOT":"-0.00001128","OBJECT_TYPE":"PAYLOAD","NORAD_CAT_ID":"48138","RCS_SIZE":"LARGE","RA_OF_ASC_NODE":"7.2725","OBJECT_ID":"2021-027AY","ECCENTRICITY":"0.00013150","MEAN_MOTION_DDOT":"0.0000000000000","BSTAR":"-0.00005689000000","CLASSIFICATION_TYPE":"U","FILE":"3426306","ARG_OF_PERICENTER":"68.7878","PERIAPSIS":"546.357","COUNTRY_CODE":"US","CENTER_NAME":"EARTH","REF_FRAME":"TEME","OBJECT_NAME":"STARLINK-2481","TIME_SYSTEM":"UTC","TLE_LINE1":"1 48138U 21027AY  22122.82938913 -.00001128  00000-0 -56890-4 0  9994"},{"OBJECT_NAME":"STARLINK-2482","TIME_SYSTEM":"UTC","TLE_LINE1":"1 48139U 21027AZ  22122.88652204  .00003738  00000-0  26979-3 0  9998","PERIAPSIS":"546.224","CENTER_NAME":"EARTH","COUNTRY_CODE":"US","REF_FRAME":"TEME","FILE":"3426306","ARG_OF_PERICENTER":"75.9443","ECCENTRICITY":"0.00014690","OBJECT_ID":"2021-027AZ","MEAN_MOTION_DDOT":"0.0000000000000","BSTAR":"0.00026979000000","CLASSIFICATION_TYPE":"U","OBJECT_TYPE":"PAYLOAD","NORAD_CAT_ID":"48139","RCS_SIZE":"LARGE","RA_OF_ASC_NODE":"347.0066","REV_AT_EPOCH":"6066","DECAY_DATE":null,"ELEMENT_SET_NO":"999","MEAN_MOTION":"15.06390802","INCLINATION":"53.0559","SITE":"AFETR","MEAN_MOTION_DOT":"0.00003738","APOAPSIS":"548.259","TLE_LINE2":"2 48139  53.0559 347.0066 0001469  75.9443 284.1709 15.06390802 60665","SEMIMAJOR_AXIS":"6925.377","GP_ID":"202556854","PERIOD":"95.593","EPOCH":"2022-05-02T21:16:35.504256","EPHEMERIS_TYPE":"0","MEAN_ELEMENT_THEORY":"SGP4","LAUNCH_DATE":"2021-04-07","MEAN_ANOMALY":"284.1709"},{"RA_OF_ASC_NODE":"7.1600","NORAD_CAT_ID":"48140","OBJECT_TYPE":"PAYLOAD","RCS_SIZE":"LARGE","REV_AT_EPOCH":"6037","DECAY_DATE":null,"MEAN_MOTION":"15.06393177","ELEMENT_SET_NO":"999","INCLINATION":"53.0549","MEAN_MOTION_DOT":"0.00002070","SITE":"AFETR","TLE_LINE2":"2 48140  53.0549   7.1600 0001678  73.6606 286.4567 15.06393177 60375","SEMIMAJOR_AXIS":"6925.369","GP_ID":"202555609","PERIOD":"95.593","APOAPSIS":"548.397","LAUNCH_DATE":"2021-04-07","MEAN_ANOMALY":"286.4567","EPOCH":"2022-05-02T20:30:06.825024","EPHEMERIS_TYPE":"0","MEAN_ELEMENT_THEORY":"SGP4","OBJECT_NAME":"STARLINK-2483","TLE_LINE1":"1 48140U 21027BA  22122.85424566  .00002070  00000-0  15782-3 0  9993","TIME_SYSTEM":"UTC","COUNTRY_CODE":"US","CENTER_NAME":"EARTH","REF_FRAME":"TEME","PERIAPSIS":"546.072","ARG_OF_PERICENTER":"73.6606","FILE":"3426306","BSTAR":"0.00015782000000","CLASSIFICATION_TYPE":"U","ECCENTRICITY":"0.00016780","OBJECT_ID":"2021-027BA","MEAN_MOTION_DDOT":"0.0000000000000"},{"RA_OF_ASC_NODE":"9.1310","RCS_SIZE":"LARGE","OBJECT_TYPE":"PAYLOAD","NORAD_CAT_ID":"48141","MEAN_MOTION_DOT":"-0.00000843","SITE":"AFETR","DECAY_DATE":null,"REV_AT_EPOCH":"6032","INCLINATION":"53.0545","ELEMENT_SET_NO":"999","MEAN_MOTION":"15.06378943","PERIOD":"95.593","SEMIMAJOR_AXIS":"6925.413","TLE_LINE2":"2 48141  53.0545   9.1310 0001594  52.8030 307.3104 15.06378943 60328","GP_ID":"202522188","APOAPSIS":"548.382","MEAN_ANOMALY":"307.3104","LAUNCH_DATE":"2021-04-07","MEAN_ELEMENT_THEORY":"SGP4","EPOCH":"2022-05-02T09:54:32.575392","EPHEMERIS_TYPE":"0","TIME_SYSTEM":"UTC","TLE_LINE1":"1 48141U 21027BB  22122.41287703 -.00000843  00000-0 -37756-4 0  9990","OBJECT_NAME":"STARLINK-2484","REF_FRAME":"TEME","COUNTRY_CODE":"US","CENTER_NAME":"EARTH","PERIAPSIS":"546.174","ARG_OF_PERICENTER":"52.8030","FILE":"3425830","CLASSIFICATION_TYPE":"U","BSTAR":"-0.00003775600000","MEAN_MOTION_DDOT":"0.0000000000000","OBJECT_ID":"2021-027BB","ECCENTRICITY":"0.00015940"}];
